{"type": "FeatureCollection", "features": [ {"type": "Feature", "properties": {"norad_id": 34683, "name": "COSMOS 2251 DEB", "group": "cosmos-2251-debris", "lat": -2.6085004582812106, "lon": 72.9216347407016, "alt_km": 693.5459222300478, "timestamp": "2025-12-22T09:53:37.795062+00:00", "meta": {"OBJECT_NAME": "COSMOS 2251 DEB", "OBJECT_ID": "1993-036YD", "EPOCH": "2025-12-21T23:13:28.490304", "MEAN_MOTION": 14.64596399, "ECCENTRICITY": 0.0017625, "INCLINATION": 74.0294, "RA_OF_ASC_NODE": 74.5237, "ARG_OF_PERICENTER": 189.2984, "MEAN_ANOMALY": 345.1079, "EPHEMERIS_TYPE": 0, "CLASSIFICATION_TYPE": "U", "NORAD_CAT_ID": 34683, "ELEMENT_SET_NO": 999, "REV_AT_EPOCH": 88483, "BSTAR": 0.0011366, "MEAN_MOTION_DOT": 6.024e-05, "MEAN_MOTION_DDOT": 0}, "tle": {"line1": "1 34683U 93036YD  25355.96769086  .00006024  00000+0  11366-2 0  9996", "line2": "2 34683  74.0294  74.5237 0017625 189.2984 345.1079 14.64596399884838"}}, "geometry": {"type": "Point", "coordinates": [72.9216347407016, -2.6085004582812106]}}, {"type": "Feature", "properties": {"norad_id": 34685, "name": "COSMOS 2251 DEB", "group": "cosmos-2251-debris", "lat": -73.15865580021088, "lon": 21.487919494536815, "alt_km": 699.1274993393454, "timestamp": "2025-12-22T09:53:37.795072+00:00", "meta": {"OBJECT_NAME": "COSMOS 2251 DEB", "OBJECT_ID": "1993-036YF", "EPOCH": "2025-12-21T20:03:37.954080", "MEAN_MOTION": 14.57580029, "ECCENTRICITY": 0.0014279, "INCLINATION": 74.0294, "RA_OF_ASC_NODE": 131.4871, "ARG_OF_PERICENTER": 236.4494, "MEAN_ANOMALY": 244.8391, "EPHEMERIS_TYPE": 0, "CLASSIFICATION_TYPE": "U", "NORAD_CAT_ID": 34685, "ELEMENT_SET_NO": 999, "REV_AT_EPOCH": 88664, "BSTAR": 0.000844, "MEAN_MOTION_DOT": 3.821e-05, "MEAN_MOTION_DDOT": 0}, "tle": {"line1": "1 34685U 93036YF  25355.83585595  .00003821  00000+0  84400-3 0  9997", "line2": "2 34685  74.0294 131.4871 0014279 236.4494 244.8391 14.57580029886648"}}, "geometry": {"type": "Point", "coordinates": [21.487919494536815, -73.15865580021088]}}, {"type": "Feature", "properties": {"norad_id": 34689, "name": "COSMOS 2251 DEB", "group": "cosmos-2251-debris", "lat": 58.67975040533475, "lon": -125.47360395866906, "alt_km": 1013.3297293245041, "timestamp": "2025-12-22T09:53:37.795082+00:00", "meta": {"OBJECT_NAME": "COSMOS 2251 DEB", "OBJECT_ID": "1993-036YK", "EPOCH": "2025-12-15T15:20:16.539648", "MEAN_MOTION": 14.04491905, "ECCENTRICITY": 0.02275051, "INCLINATION": 74.0901, "RA_OF_ASC_NODE": 218.3502, "ARG_OF_PERICENTER": 286.6099, "MEAN_ANOMALY": 101.262, "EPHEMERIS_TYPE": 0, "CLASSIFICATION_TYPE": "U", "NORAD_CAT_ID": 34689, "ELEMENT_SET_NO": 999, "REV_AT_EPOCH": 84382, "BSTAR": 0.0020174062, "MEAN_MOTION_DOT": 4.031e-05, "MEAN_MOTION_DDOT": 0}, "tle": {"line1": "1 34689U 93036YK  25349.63908032  .00004031  00000+0  20174-2 0  9998", "line2": "2 34689  74.0901 218.3502 0227505 286.6099 101.2620 14.04491905843829"}}, "geometry": {"type": "Point", "coordinates": [-125.47360395866906, 58.67975040533475]}}, {"type": "Feature", "properties": {"norad_id": 34721, "name": "COSMOS 2251 DEB", "group": "cosmos-2251-debris", "lat": -3.8843667051869204, "lon": 130.58880974185897, "alt_km": 830.3484027193981, "timestamp": "2025-12-22T09:53:37.795092+00:00", "meta": {"OBJECT_NAME": "COSMOS 2251 DEB", "OBJECT_ID": "1993-036YP", "EPOCH": "2025-12-21T03:52:51.241152", "MEAN_MOTION": 13.96883569, "ECCENTRICITY": 0.02230104, "INCLINATION": 73.9233, "RA_OF_ASC_NODE": 311.6355, "ARG_OF_PERICENTER": 249.0596, "MEAN_ANOMALY": 130.8495, "EPHEMERIS_TYPE": 0, "CLASSIFICATION_TYPE": "U", "NORAD_CAT_ID": 34721, "ELEMENT_SET_NO": 999, "REV_AT_EPOCH": 85267, "BSTAR": 0.00073678723, "MEAN_MOTION_DOT": 1.239e-05, "MEAN_MOTION_DDOT": 0}, "tle": {"line1": "1 34721U 93036YP  25355.16170418  .00001239  00000+0  73679-3 0  9995", "line2": "2 34721  73.9233 311.6355 0223010 249.0596 130.8495 13.96883569852679"}}, "geometry": {"type": "Point", "coordinates": [130.58880974185897, -3.8843667051869204]}}, {"type": "Feature", "properties": {"norad_id": 34722, "name": "COSMOS 2251 DEB", "group": "cosmos-2251-debris", "lat": -34.062550275058044, "lon": 150.09634074721635, "alt_km": 750.7660566800641, "timestamp": "2025-12-22T09:53:37.795102+00:00", "meta": {"OBJECT_NAME": "COSMOS 2251 DEB", "OBJECT_ID": "1993-036YQ", "EPOCH": "2025-12-21T14:44:07.154016", "MEAN_MOTION": 14.11959148, "ECCENTRICITY": 0.016668, "INCLINATION": 73.8731, "RA_OF_ASC_NODE": 320.2389, "ARG_OF_PERICENTER": 244.2474, "MEAN_ANOMALY": 236.1004, "EPHEMERIS_TYPE": 0, "CLASSIFICATION_TYPE": "U", "NORAD_CAT_ID": 34722, "ELEMENT_SET_NO": 999, "REV_AT_EPOCH": 86370, "BSTAR": 0.00056545, "MEAN_MOTION_DOT": 1.152e-05, "MEAN_MOTION_DDOT": 0}, "tle": {"line1": "1 34722U 93036YQ  25355.61397169  .00001152  00000+0  56545-3 0  9997", "line2": "2 34722  73.8731 320.2389 0166680 244.2474 236.1004 14.11959148863703"}}, "geometry": {"type": "Point", "coordinates": [150.09634074721635, -34.062550275058044]}}, {"type": "Feature", "properties": {"norad_id": 34726, "name": "COSMOS 2251 DEB", "group": "cosmos-2251-debris", "lat": 71.94959893469145, "lon": 86.37099389240593, "alt_km": 659.2190533388348, "timestamp": "2025-12-22T09:53:37.795112+00:00", "meta": {"OBJECT_NAME": "COSMOS 2251 DEB", "OBJECT_ID": "1993-036YU", "EPOCH": "2025-12-21T08:46:11.071488", "MEAN_MOTION": 14.5951262, "ECCENTRICITY": 0.00417411, "INCLINATION": 74.0281, "RA_OF_ASC_NODE": 329.8686, "ARG_OF_PERICENTER": 117.8308, "MEAN_ANOMALY": 242.7097, "EPHEMERIS_TYPE": 0, "CLASSIFICATION_TYPE": "U", "NORAD_CAT_ID": 34726, "ELEMENT_SET_NO": 999, "REV_AT_EPOCH": 88628, "BSTAR": 0.0003308409, "MEAN_MOTION_DOT": 1.56e-05, "MEAN_MOTION_DDOT": 0}, "tle": {"line1": "1 34726U 93036YU  25355.36540592  .00001560  00000+0  33084-3 0  9999", "line2": "2 34726  74.0281 329.8686 0041741 117.8308 242.7097 14.59512620886281"}}, "geometry": {"type": "Point", "coordinates": [86.37099389240593, 71.94959893469145]}}, {"type": "Feature", "properties": {"norad_id": 34728, "name": "COSMOS 2251 DEB", "group": "cosmos-2251-debris", "lat": 12.114200122818438, "lon": -123.50322820588468, "alt_km": 630.970609566577, "timestamp": "2025-12-22T09:53:37.795121+00:00", "meta": {"OBJECT_NAME": "COSMOS 2251 DEB", "OBJECT_ID": "1993-036YW", "EPOCH": "2025-12-20T02:20:18.568032", "MEAN_MOTION": 14.70905998, "ECCENTRICITY": 0.00414013, "INCLINATION": 74.0163, "RA_OF_ASC_NODE": 237.4676, "ARG_OF_PERICENTER": 33.08, "MEAN_ANOMALY": 327.2947, "EPHEMERIS_TYPE": 0, "CLASSIFICATION_TYPE": "U", "NORAD_CAT_ID": 34728, "ELEMENT_SET_NO": 999, "REV_AT_EPOCH": 88908, "BSTAR": 0.00043281985, "MEAN_MOTION_DOT": 2.653e-05, "MEAN_MOTION_DDOT": 0}, "tle": {"line1": "1 34728U 93036YW  25354.09743713  .00002653  00000+0  43282-3 0  9995", "line2": "2 34728  74.0163 237.4676 0041401  33.0800 327.2947 14.70905998889085"}}, "geometry": {"type": "Point", "coordinates": [-123.50322820588468, 12.114200122818438]}}, {"type": "Feature", "properties": {"norad_id": 34729, "name": "COSMOS 2251 DEB", "group": "cosmos-2251-debris", "lat": 73.34381752766754, "lon": 52.59481963984761, "alt_km": 604.1411021843223, "timestamp": "2025-12-22T09:53:37.795131+00:00", "meta": {"OBJECT_NAME": "COSMOS 2251 DEB", "OBJECT_ID": "1993-036YX", "EPOCH": "2025-12-21T03:19:22.028160", "MEAN_MOTION": 14.83009492, "ECCENTRICITY": 0.00118737, "INCLINATION": 74.0178, "RA_OF_ASC_NODE": 341.7906, "ARG_OF_PERICENTER": 95.888, "MEAN_ANOMALY": 31.6413, "EPHEMERIS_TYPE": 0, "CLASSIFICATION_TYPE": "U", "NORAD_CAT_ID": 34729, "ELEMENT_SET_NO": 999, "REV_AT_EPOCH": 88582, "BSTAR": 0.0012387891, "MEAN_MOTION_DOT": 0.00010064, "MEAN_MOTION_DDOT": 0}, "tle": {"line1": "1 34729U 93036YX  25355.13844940  .00010064  00000+0  12388-2 0  9993", "line2": "2 34729  74.0178 341.7906 0011873  95.8880  31.6413 14.83009492885821"}}, "geometry": {"type": "Point", "coordinates": [52.59481963984761, 73.34381752766754]}}, {"type": "Feature", "properties": {"norad_id": 34732, "name": "COSMOS 2251 DEB", "group": "cosmos-2251-debris", "lat": 27.18372036452595, "lon": -113.335301839179, "alt_km": 724.400601485785, "timestamp": "2025-12-22T09:53:37.795141+00:00", "meta": {"OBJECT_NAME": "COSMOS 2251 DEB", "OBJECT_ID": "1993-036ZA", "EPOCH": "2025-12-21T05:08:15.253152", "MEAN_MOTION": 14.47309229, "ECCENTRICITY": 0.00402182, "INCLINATION": 74.0456, "RA_OF_ASC_NODE": 77.3511, "ARG_OF_PERICENTER": 226.7756, "MEAN_ANOMALY": 164.853, "EPHEMERIS_TYPE": 0, "CLASSIFICATION_TYPE": "U", "NORAD_CAT_ID": 34732, "ELEMENT_SET_NO": 999, "REV_AT_EPOCH": 88266, "BSTAR": 9.8245865e-05, "MEAN_MOTION_DOT": 3.35e-06, "MEAN_MOTION_DDOT": 0}, "tle": {"line1": "1 34732U 93036ZA  25355.21406543  .00000335  00000+0  98246-4 0  9998", "line2": "2 34732  74.0456  77.3511 0040218 226.7756 164.8530 14.47309229882669"}}, "geometry": {"type": "Point", "coordinates": [-113.335301839179, 27.18372036452595]}}, {"type": "Feature", "properties": {"norad_id": 34736, "name": "COSMOS 2251 DEB", "group": "cosmos-2251-debris", "lat": -45.886032423353726, "lon": -2.313651860452449, "alt_km": 398.0857898591985, "timestamp": "2025-12-22T09:53:37.795151+00:00", "meta": {"OBJECT_NAME": "COSMOS 2251 DEB", "OBJECT_ID": "1993-036ZE", "EPOCH": "2025-12-22T02:23:00.141216", "MEAN_MOTION": 15.55489726, "ECCENTRICITY": 0.0013425, "INCLINATION": 73.9983, "RA_OF_ASC_NODE": 15.5975, "ARG_OF_PERICENTER": 339.0956, "MEAN_ANOMALY": 20.9709, "EPHEMERIS_TYPE": 0, "CLASSIFICATION_TYPE": "U", "NORAD_CAT_ID": 34736, "ELEMENT_SET_NO": 999, "REV_AT_EPOCH": 88593, "BSTAR": 0.0073524, "MEAN_MOTION_DOT": 0.00538944, "MEAN_MOTION_DDOT": 0}, "tle": {"line1": "1 34736U 93036ZE  25356.09930719  .00538944  00000+0  73524-2 0  9998", "line2": "2 34736  73.9983  15.5975 0013425 339.0956  20.9709 15.55489726885938"}}, "geometry": {"type": "Point", "coordinates": [-2.313651860452449, -45.886032423353726]}}]}